2026-083J
1 68763U 26083J   26108.42310846  .00001527  00000+0  10598-3 0  9994
2 68763  96.9505 248.5735 0011201 253.6518 106.3480 15.06814958   206
