{
  "norad_id": 68763,
  "name": "2026-083J",
  "history": [
    {
      "epoch": "2026-04-18T10:09:16.570944Z",
      "apogee_km": 553.6962759486414,
      "perigee_km": 538.1838506590975,
      "latitude_deg": 3.387860208550774e-05,
      "longitude_deg": -110.28787144529,
      "height_km": 551.2166444535338,
      "semi_major_axis_km": 6924.077063303869,
      "eccentricity": 0.00112018,
      "inclination_deg": 96.9505,
      "raan_deg": 248.5735,
      "arg_perigee_deg": 253.6518,
      "mean_anomaly_deg": 106.348,
      "mean_motion_rev_day": 15.06814958
    }
  ]
}